index,OBJECT_NAME,OBJECT_ID,EPOCH,MEAN_MOTION,ECCENTRICITY,INCLINATION,RA_OF_ASC_NODE,ARG_OF_PERICENTER,MEAN_ANOMALY,EPHEMERIS_TYPE,CLASSIFICATION_TYPE,NORAD_CAT_ID,ELEMENT_SET_NO,REV_AT_EPOCH,BSTAR,MEAN_MOTION_DOT,MEAN_MOTION_DDOT,GROUP,downloaded
27,TIANHE,2021-035A,2022-05-13T01:27:21.137184,15.59490262,0.0004126,41.469,72.441,325.3561,100.2007,0,U,48274,999,5928,0.0,-3.37e-06,0.0,stations,2022-05-13 13:10:30.245709
28,ISS DEB,1998-067SK,2022-05-13T04:49:54.538752,15.61226183,0.0002042,51.6362,140.4913,14.483,345.6222,0,U,48833,999,5364,0.00050151,0.0004304,0.0,stations,2022-05-13 13:10:30.245709
29,RAMSAT,1998-067SL,2022-05-13T00:54:17.044128,15.65304232,0.0004504,51.6358,137.9108,1.4738,358.627,0,U,48850,999,5177,0.00063978,0.00064867,0.0,stations,2022-05-13 13:10:30.245709
30,BD-28,1998-067SN,2022-05-12T14:00:58.836384,15.67613325,0.0005953,51.6327,138.597,19.7767,340.3459,0,U,48867,999,5047,0.00065708,0.00073279,0.0,stations,2022-05-13 13:10:30.245709
31,ISS (NAUKA),2021-066A,2022-05-11T12:29:35.209824,15.5002116,0.0007099,51.6429,158.1746,86.0043,69.0761,0,U,49044,999,33949,8.178e-05,4.217e-05,0.0,stations,2022-05-13 13:10:30.245709
32,TIANZHOU-3,2021-085A,2022-05-11T00:13:16.183776,15.61111809,0.00119,41.4698,84.9227,309.5467,94.8674,0,U,49222,999,5896,-4.9967e-07,-3.95e-06,0.0,stations,2022-05-13 13:10:30.245709
33,FREGAT DEB,2011-037PF,2022-05-12T13:35:18.875616,11.87842153,0.0908226,51.6399,330.0644,338.5029,17.9847,0,U,49271,999,4292,0.059898,0.00013143,0.0,stations,2022-05-13 13:10:30.245709
34,BINAR-1,1998-067SR,2022-05-13T01:01:01.094592,15.64561509,0.0002684,51.6346,141.6684,72.7164,287.4124,0,U,49272,999,3411,0.00068074,0.00067033,0.0,stations,2022-05-13 13:10:30.245709
35,MAYA-3,1998-067SS,2022-05-13T03:59:22.676352,15.69883775,0.0004424,51.6337,138.7395,60.5779,299.566,0,U,49273,999,3416,0.00093361,0.00115152,0.0,stations,2022-05-13 13:10:30.245709
36,MAYA-4,1998-067ST,2022-05-13T04:19:41.822688,15.69588683,0.0004468,51.6336,138.8308,60.5432,299.6011,0,U,49274,999,3416,0.00092739,0.00112956,0.0,stations,2022-05-13 13:10:30.245709
37,CUAVA-1,1998-067SU,2022-05-13T06:11:14.053920,15.67297718,0.0002737,51.6367,139.1626,60.5499,26.8282,0,U,49275,999,3411,0.00061908,0.00068034,0.0,stations,2022-05-13 13:10:30.245709
38,CAPSAT,1998-067SV,2022-05-12T13:54:01.727424,15.64767527,0.000221,51.6378,144.5862,65.0526,295.0699,0,U,49276,999,3309,0.00071926,0.00071478,0.0,stations,2022-05-13 13:10:30.245709
39,PR-CUNAR 2,1998-067SW,2022-05-12T18:06:09.829152,15.66674459,0.0002718,51.631,142.7046,67.1421,292.9862,0,U,49277,999,3310,0.00084967,0.00091509,0.0,stations,2022-05-13 13:10:30.245709
40,PROGRESS-MS 18,2021-098A,2022-05-11T12:29:35.209824,15.5002116,0.0007099,51.6429,158.1746,86.0043,69.0761,0,U,49379,999,33949,8.178e-05,4.217e-05,0.0,stations,2022-05-13 13:10:30.245709
41,GASPACS,1998-067TB,2022-05-09T08:23:20.477184,15.82307313,0.0014458,51.6288,160.4669,34.2958,325.8975,0,U,51439,999,1609,0.0020273,0.00453457,0.0,stations,2022-05-13 13:10:30.245709
42,1998-067TD,1998-067TD,2022-05-12T18:37:10.015104,15.58138372,0.0008393,51.6381,148.89,77.8309,282.3624,0,U,51441,999,1660,0.00059695,0.00045669,0.0,stations,2022-05-13 13:10:30.245709
43,PATCOOL,1998-067TE,2022-05-13T00:26:15.221472,15.58441178,0.0008166,51.6365,147.5032,82.6816,277.5104,0,U,51442,999,1660,0.00058335,0.00045127,0.0,stations,2022-05-13 13:10:30.245709
44,DAILI,1998-067TF,2022-05-10T08:35:59.000928,15.70821888,0.0013163,51.6336,157.4802,46.9935,313.2163,0,U,51443,999,1619,0.0011885,0.0015397,0.0,stations,2022-05-13 13:10:30.245709
45,LIGHT-1,1998-067TG,2022-05-13T02:02:10.736736,15.56475755,0.0010298,51.6386,147.9538,82.3229,277.8931,0,U,51509,999,1538,0.00035138,0.00024996,0.0,stations,2022-05-13 13:10:30.245709
46,GT-1,1998-067TH,2022-05-13T03:20:52.905408,15.72046889,0.0012773,51.6331,143.7951,55.1574,305.0624,0,U,51510,999,1546,0.001686,0.00232355,0.0,stations,2022-05-13 13:10:30.245709
47,PROGRESS-MS 19,2022-014A,2022-05-11T12:29:35.209824,15.5002116,0.0007099,51.6429,158.1746,86.0043,69.0761,0,U,51660,999,33949,8.178e-05,4.217e-05,0.0,stations,2022-05-13 13:10:30.245709
48,CYGNUS NG-17,2022-015A,2022-05-11T12:29:35.209824,15.5002116,0.0007099,51.6429,158.1746,86.0043,69.0761,0,U,51712,999,33949,8.178e-05,4.217e-05,0.0,stations,2022-05-13 13:10:30.245709
49,SOYUZ-MS 21,2022-028A,2022-05-11T12:29:35.209824,15.5002116,0.0007099,51.6429,158.1746,86.0043,69.0761,0,U,52086,999,33949,8.178e-05,4.217e-05,0.0,stations,2022-05-13 13:10:30.245709
50,IHI-SAT,1998-067TJ,2022-05-12T18:35:57.103872,15.53940653,0.0003374,51.6385,151.1284,109.1703,250.9653,0,U,52147,999,776,0.0005064,0.00032957,0.0,stations,2022-05-13 13:10:30.245709
51,KITSUNE,1998-067TK,2022-05-13T06:26:12.922368,15.52634842,0.0003899,51.6423,148.9747,105.4916,347.9813,0,U,52148,999,777,0.00032219,0.00019785,0.0,stations,2022-05-13 13:10:30.245709
52,CREW DRAGON 4,2022-042A,2022-05-11T12:29:35.209824,15.5002116,0.0007099,51.6429,158.1746,86.0043,69.0761,0,U,52318,999,33949,8.178e-05,4.217e-05,0.0,stations,2022-05-13 13:10:30.245709
53,AXIOM-1 DEB,2022-037B,2022-05-13T10:00:11.026656,16.29597904,0.0036047,51.8751,141.7994,244.2928,223.7138,0,U,52319,999,284,0.00079374,0.04438046,1.2018e-05,stations,2022-05-13 13:10:30.245709
