CSS (TIANHE-1)
1 48274U 21035A   22133.06066131 -.00000337  00000-0  00000+0 0  9993
2 48274  41.4690  72.4410 0004126 325.3561 100.2007 15.59490262 59284
ISS DEB (FGBVALVEPANEL)
1 48833U 98067SK  22133.20132568  .00043040  00000-0  50151-3 0  9990
2 48833  51.6362 140.4913 0002042  14.4830 345.6222 15.61226183 53648
RAMSAT
1 48850U 98067SL  22133.03769727  .00064867  00000-0  63978-3 0  9994
2 48850  51.6358 137.9108 0004504   1.4738 358.6270 15.65304232 51772
BD-28
1 48867U 98067SN  22132.58401431  .00073279  00000-0  65708-3 0  9996
2 48867  51.6327 138.5970 0005953  19.7767 340.3459 15.67613325 50474
ISS (NAUKA)
1 49044U 21066A   22131.52054641  .00004217  00000-0  81780-4 0  9994
2 49044  51.6429 158.1746 0007099  86.0043  69.0761 15.50021160339496
TIANZHOU 3
1 49222U 21085A   22131.00921509 -.00000395  00000-0 -49967-6 0  9990
2 49222  41.4698  84.9227 0011900 309.5467  94.8674 15.61111809 58969
FREGAT DEB
1 49271U 11037PF  22132.56619069  .00013143  00000-0  59898-1 0  9999
2 49271  51.6399 330.0644 0908226 338.5029  17.9847 11.87842153 42928
BINAR-1
1 49272U 98067SR  22133.04237378  .00067033  00000-0  68074-3 0  9996
2 49272  51.6346 141.6684 0002684  72.7164 287.4124 15.64561509 34117
MAYA-3
1 49273U 98067SS  22133.16623468  .00115152  00000-0  93361-3 0  9992
2 49273  51.6337 138.7395 0004424  60.5779 299.5660 15.69883775 34166
MAYA-4
1 49274U 98067ST  22133.18034517  .00112956  00000-0  92739-3 0  9993
2 49274  51.6336 138.8308 0004468  60.5432 299.6011 15.69588683 34166
CUAVA-1
1 49275U 98067SU  22133.25780155  .00068034  00000-0  61908-3 0  9999
2 49275  51.6367 139.1626 0002737  60.5499  26.8282 15.67297718 34117
CAPSAT
1 49276U 98067SV  22132.57918666  .00071478  00000-0  71926-3 0  9991
2 49276  51.6378 144.5862 0002210  65.0526 295.0699 15.64767527 33094
PRCUNAR2
1 49277U 98067SW  22132.75428043  .00091509  00000-0  84967-3 0  9993
2 49277  51.6310 142.7046 0002718  67.1421 292.9862 15.66674459 33108
PROGRESS MS-18
1 49379U 21098A   22131.52054641  .00004217  00000-0  81780-4 0  9990
2 49379  51.6429 158.1746 0007099  86.0043  69.0761 15.50021160339497
GASPACS
1 51439U 98067TB  22129.34954256  .00453457  00000-0  20273-2 0  9990
2 51439  51.6288 160.4669 0014458  34.2958 325.8975 15.82307313 16097
OBJECT TD
1 51441U 98067TD  22132.77581036  .00045669  00000-0  59695-3 0  9999
2 51441  51.6381 148.8900 0008393  77.8309 282.3624 15.58138372 16601
PATCOOL
1 51442U 98067TE  22133.01823173  .00045127  00000-0  58335-3 0  9998
2 51442  51.6365 147.5032 0008166  82.6816 277.5104 15.58441178 16601
DAILI
1 51443U 98067TF  22130.35832177  .00153970  00000-0  11885-2 0  9991
2 51443  51.6336 157.4802 0013163  46.9935 313.2163 15.70821888 16194
LIGHT-1
1 51509U 98067TG  22133.08484649  .00024996  00000-0  35138-3 0  9997
2 51509  51.6386 147.9538 0010298  82.3229 277.8931 15.56475755 15388
GT-1
1 51510U 98067TH  22133.13950122  .00232355  00000-0  16860-2 0  9999
2 51510  51.6331 143.7951 0012773  55.1574 305.0624 15.72046889 15466
PROGRESS MS-19
1 51660U 22014A   22131.52054641  .00004217  00000-0  81780-4 0  9995
2 51660  51.6429 158.1746 0007099  86.0043  69.0761 15.50021160339493
CYGNUS NG-17
1 51712U 22015A   22131.52054641  .00004217  00000-0  81780-4 0  9994
2 51712  51.6429 158.1746 0007099  86.0043  69.0761 15.50021160339491
SOYUZ MS-21
1 52086U 22028A   22131.52054641  .00004217  00000-0  81780-4 0  9993
2 52086  51.6429 158.1746 0007099  86.0043  69.0761 15.50021160339496
IHI-SAT
1 52147U 98067TJ  22132.77496648  .00032957  00000-0  50640-3 0  9994
2 52147  51.6385 151.1284 0003374 109.1703 250.9653 15.53940653  7760
KITSUNE
1 52148U 98067TK  22133.26820512  .00019785  00000-0  32219-3 0  9997
2 52148  51.6423 148.9747 0003899 105.4916 347.9813 15.52634842  7774
DRAGON FREEDOM
1 52318U 22042A   22131.52054641  .00004217  00000-0  81780-4 0  9997
2 52318  51.6429 158.1746 0007099  86.0043  69.0761 15.50021160339494
AXIOM-1 DEB
1 52319U 22037B   22133.41679429  .04438046  12018-4  79374-3 0  9995
2 52319  51.8751 141.7994 0036047 244.2928 223.7138 16.29597904  2847
